FENGYUN 1C DEB          
1 31208U 99025BKN 17346.52663519  .00000883  00000-0  36056-3 0  9999
2 31208  99.2491 231.2484 0023135 144.6389 336.6089 14.29973723556708
